03257,2000,01,01,00,00,AAXX 01004 03257 32582 13105 10078 20060 40162 53016 81530 333 81625=
03257,2000,01,01,01,00,AAXX 01014 03257 42581 12905 10065 20043 40174 52027 81530 333 81622=
03257,2000,01,01,02,00,AAXX 01024 03257 42580 13206 10055 20031 40187 53030 81530 333 81620=
03257,2000,01,01,03,00,AAXX 01034 03257 42575 12908 10053 20021 40196 52033 81530 333 81620=
03257,2000,01,01,04,00,AAXX 01044 03257 42775 12806 10038 20010 40200 51026 81530 333 81650=
03257,2000,01,01,05,00,AAXX 01054 03257 42975 10000 10016 20004 40212 52024 81030 333 81359=
03257,2000,01,01,06,00,AAXX 01064 03257 32970 00000 10001 21011 40218 52021 333 21005 31105=
03257,2000,01,01,07,00,AAXX 01074 03257 42975 00000 11009 21019 40227 53026=
03257,2000,01,01,08,00,AAXX 01084 03257 42781 10000 11006 21015 40232 52020 81531 333 81650=
03257,2000,01,01,09,00,AAXX 01094 03257 42781 50000 11021 21036 40237 51019 81502 333 81650 85075 92600=
03257,2000,01,01,10,00,AAXX 01104 03257 42782 61506 10022 21003 40236 50009 81502 333 81650 86075=
03257,2000,01,01,11,00,AAXX 01114 03257 42782 51602 10033 20006 40239 51007 81502 333 81650 85075=
03257,2000,01,01,12,00,AAXX 01124 03257 32582 41306 10041 20013 40234 58002 81802 333 81820 84075=
03257,2000,01,01,13,00,AAXX 01134 03257 42582 51407 10052 20019 40233 58002 81832 333 81820 85075=
03257,2000,01,01,14,00,AAXX 01144 03257 46/67 /0000 10078 20033 40229 57009 555 7/090 80/99=
03257,2000,01,01,15,00,AAXX 01154 03257 42580 72104 10072 20017 40225 58009 81132 333 81820 87075=
03257,2000,01,01,16,00,AAXX 01164 03257 42570 71608 10048 20020 40225 56008 81132 333 81820 87075=
03257,2000,01,01,17,00,AAXX 01174 03257 42562 71408 10036 20021 40228 55001 81832 333 81820 87075=
03257,2000,01,01,18,00,AAXX 01184 03257 32560 71609 10031 20017 40228 50002 81832 333 10079 81820 87075=
03257,2000,01,01,19,00,AAXX 01194 03257 42660 71906 10018 20004 40230 52004 81502 333 81635 87075=
03257,2000,01,01,20,00,AAXX 01204 03257 41657 71509 10024 20014 40226 58003 70422 81502 333 81635 87075=
03257,2000,01,01,21,00,AAXX 01214 03257 42660 71107 10023 20009 40223 58005 81502 333 81630 87075=
03257,2000,01,01,22,00,AAXX 01224 03257 42660 70906 10020 20009 40219 57011 81502 333 81630 87075=
03257,2000,01,01,23,00,AAXX 01234 03257 42660 71308 10025 20013 40218 56008 81502 333 81630 87075=
03257,2000,01,02,00,00,AAXX 02004 03257 32565 71908 10051 20021 40220 55002 85502 333 85622 86075=
03257,2000,01,02,01,00,AAXX 02014 03257 42570 71810 10058 20024 40208 58010 875// 333 87624=
03257,2000,01,02,02,00,AAXX 02024 03257 42570 72315 10066 20026 40204 57013 82542 333 82625 86075 90710 91127=
03257,2000,01,02,03,00,AAXX 02034 03257 42575 72213 10074 20025 40205 55015 81542 333 81625 86075 90710 91128=
03257,2000,01,02,04,00,AAXX 02044 03257 42675 72612 10067 20030 40208 55000 81542 333 81630 86363=
03257,2000,01,02,05,00,AAXX 02054 03257 42675 72213 10070 20031 40206 52002 84542 333 84630 85363=
03257,2000,01,02,06,00,AAXX 02064 03257 32575 72318 10070 20032 40206 50001 84542 333 20017 31101 84626 86075=
03257,2000,01,02,07,00,AAXX 02074 03257 42475 71709 10072 20038 40210 53002 875// 333 87616=
03257,2000,01,02,08,00,AAXX 02084 03257 41470 72011 10074 20051 40216 53010 76022 875// 333 87614=
03257,2000,01,02,09,00,AAXX 02094 03257 41468 72408 10075 20057 40220 52014 72162 875// 333 83615 87626=
03257,2000,01,02,10,00,AAXX 02104 03257 41465 72106 10076 20058 40227 52017 76062 875// 333 82614 87624=
03257,2000,01,02,11,00,AAXX 02114 03257 41470 72308 10080 20059 40230 52014 72162 875// 333 85618 84636=
03257,2000,01,02,12,00,AAXX 02124 03257 11466 72105 10081 20063 40226 50006 69901 70262 85532 333 82618 84635 85365=
03257,2000,01,02,13,00,AAXX 02134 03257 42466 72105 10095 20066 40217 58009 84532 333 81618 83626=
03257,2000,01,02,14,00,AAXX 02144 03257 42466 71908 10088 20062 40213 57016 878// 333 81816 83625 87632=
