03257,2000,01,01,00,00,AAXX 01004 03257 32582 13105 10078 20060 40162 53016 81530 333 81625=
03257,2000,01,01,01,00,AAXX 01014 03257 42581 12905 10065 20043 40174 52027 81530 333 81622=
03257,2000,01,01,02,00,AAXX 01024 03257 42580 13206 10055 20031 40187 53030 81530 333 81620=
03257,2000,01,01,03,00,AAXX 01034 03257 42575 12908 10053 20021 40196 52033 81530 333 81620=
03257,2000,01,01,04,00,AAXX 01044 03257 42775 12806 10038 20010 40200 51026 81530 333 81650=
03257,2000,01,01,05,00,AAXX 01054 03257 42975 10000 10016 20004 40212 52024 81030 333 81359=
03257,2000,01,01,06,00,AAXX 01064 03257 32970 00000 10001 21011 40218 52021 333 21005 31105=
03257,2000,01,01,07,00,AAXX 01074 03257 42975 00000 11009 21019 40227 53026=
03257,2000,01,01,08,00,AAXX 01084 03257 42781 10000 11006 21015 40232 52020 81531 333 81650=
03257,2000,01,01,09,00,AAXX 01094 03257 42781 50000 11021 21036 40237 51019 81502 333 81650 85075 92600=
03257,2000,01,01,10,00,AAXX 01104 03257 42782 61506 10022 21003 40236 50009 81502 333 81650 86075=
03257,2000,01,01,11,00,AAXX 01114 03257 42782 51602 10033 20006 40239 51007 81502 333 81650 85075=
03257,2000,01,01,12,00,AAXX 01124 03257 32582 41306 10041 20013 40234 58002 81802 333 81820 84075=
03257,2000,01,01,13,00,AAXX 01134 03257 42582 51407 10052 20019 40233 58002 81832 333 81820 85075=
03257,2000,01,01,14,00,AAXX 01144 03257 46/67 /0000 10078 20033 40229 57009 555 7/090 80/99=
03257,2000,01,01,15,00,AAXX 01154 03257 42580 72104 10072 20017 40225 58009 81132 333 81820 87075=
03257,2000,01,01,16,00,AAXX 01164 03257 42570 71608 10048 20020 40225 56008 81132 333 81820 87075=
03257,2000,01,01,17,00,AAXX 01174 03257 42562 71408 10036 20021 40228 55001 81832 333 81820 87075=
03257,2000,01,01,18,00,AAXX 01184 03257 32560 71609 10031 20017 40228 50002 81832 333 10079 81820 87075=
03257,2000,01,01,19,00,AAXX 01194 03257 42660 71906 10018 20004 40230 52004 81502 333 81635 87075=
03257,2000,01,01,20,00,AAXX 01204 03257 41657 71509 10024 20014 40226 58003 70422 81502 333 81635 87075=
03257,2000,01,01,21,00,AAXX 01214 03257 42660 71107 10023 20009 40223 58005 81502 333 81630 87075=
03257,2000,01,01,22,00,AAXX 01224 03257 42660 70906 10020 20009 40219 57011 81502 333 81630 87075=
03257,2000,01,01,23,00,AAXX 01234 03257 42660 71308 10025 20013 40218 56008 81502 333 81630 87075=
03257,2000,01,02,00,00,AAXX 02004 03257 32565 71908 10051 20021 40220 55002 85502 333 85622 86075=
03257,2000,01,02,01,00,AAXX 02014 03257 42570 71810 10058 20024 40208 58010 875// 333 87624=
03257,2000,01,02,02,00,AAXX 02024 03257 42570 72315 10066 20026 40204 57013 82542 333 82625 86075 90710 91127=
03257,2000,01,02,03,00,AAXX 02034 03257 42575 72213 10074 20025 40205 55015 81542 333 81625 86075 90710 91128=
03257,2000,01,02,04,00,AAXX 02044 03257 42675 72612 10067 20030 40208 55000 81542 333 81630 86363=
03257,2000,01,02,05,00,AAXX 02054 03257 42675 72213 10070 20031 40206 52002 84542 333 84630 85363=
03257,2000,01,02,06,00,AAXX 02064 03257 32575 72318 10070 20032 40206 50001 84542 333 20017 31101 84626 86075=
03257,2000,01,02,07,00,AAXX 02074 03257 42475 71709 10072 20038 40210 53002 875// 333 87616=
03257,2000,01,02,08,00,AAXX 02084 03257 41470 72011 10074 20051 40216 53010 76022 875// 333 87614=
03257,2000,01,02,09,00,AAXX 02094 03257 41468 72408 10075 20057 40220 52014 72162 875// 333 83615 87626=
03257,2000,01,02,10,00,AAXX 02104 03257 41465 72106 10076 20058 40227 52017 76062 875// 333 82614 87624=
03257,2000,01,02,11,00,AAXX 02114 03257 41470 72308 10080 20059 40230 52014 72162 875// 333 85618 84636=
03257,2000,01,02,12,00,AAXX 02124 03257 11466 72105 10081 20063 40226 50006 69901 70262 85532 333 82618 84635 85365=
03257,2000,01,02,13,00,AAXX 02134 03257 42466 72105 10095 20066 40217 58009 84532 333 81618 83626=
03257,2000,01,02,14,00,AAXX 02144 03257 42466 71908 10088 20062 40213 57016 878// 333 81816 83625 87632=
03257,2000,01,02,15,00,AAXX 02154 03257 41460 71705 10080 20063 40212 56014 76062 875// 333 82611 87620=
03257,2000,01,02,16,00,AAXX 02164 03257 41560 81508 10073 20054 40207 57011 76162 885// 333 88622=
03257,2000,01,02,17,00,AAXX 02174 03257 41560 81608 10072 20059 40203 58011 72162 885// 333 88620=
03257,2000,01,02,18,00,AAXX 02184 03257 11559 81511 10070 20056 40186 58026 69902 70262 885// 333 10098 84620 88626=
03257,2000,01,02,19,00,AAXX 02194 03257 42558 71509 10067 20049 40174 58033 875// 333 85622 87638=
03257,2000,01,02,20,00,AAXX 02204 03257 41357 71711 10065 20048 40163 56040 70422 875// 333 81708 86619=
03257,2000,01,02,21,00,AAXX 02214 03257 41358 71711 10070 20050 40154 56032 70422 875// 333 81708 83618 87626=
03257,2000,01,02,22,00,AAXX 02224 03257 42560 81712 10081 20058 40136 58037 885// 333 85622 88635=
03257,2000,01,02,23,00,AAXX 02234 03257 42460 81612 10079 20059 40119 58043 885// 333 88618=
03257,2000,01,03,00,00,AAXX 03004 03257 11456 81615 10078 20068 40104 57049 69921 76062 885// 333 88616=
03257,2000,01,03,01,00,AAXX 03014 03257 41465 72021 10109 20075 40090 56046 72162 875// 333 85616 87625 90710 91134=
03257,2000,01,03,02,00,AAXX 03024 03257 42565 72123 10111 20075 40082 56037 875// 333 87620 90710 91135=
03257,2000,01,03,03,00,AAXX 03034 03257 41565 82121 10108 20079 40087 55017 76082 885// 333 85620 88635 90710 91134=
03257,2000,01,03,04,00,AAXX 03044 03257 41570 72116 10105 20080 40087 55003 72162 875// 333 83620 87645 90710 91129 91027=
03257,2000,01,03,05,00,AAXX 03054 03257 42575 42520 10099 20053 40096 50014 83502 333 81620 83650 90710 91130=
03257,2000,01,03,06,00,AAXX 03064 03257 11575 22721 10084 20007 40103 53016 69922 70161 81501 333 20064 31005 81620 90710 91131 91031=
03257,2000,01,03,07,00,AAXX 03074 03257 42475 12622 10076 20025 40106 51019 81801 333 81818 90710 91131=
03257,2000,01,03,08,00,AAXX 03084 03257 42768 12516 10068 20021 40115 52019 81501 333 81650 90710 91130=
03257,2000,01,03,09,00,AAXX 03094 03257 42568 12412 10067 20021 40126 53023 81102 333 81820=
03257,2000,01,03,10,00,AAXX 03104 03257 42570 22516 10075 20025 40128 51022 81102 333 81820=
03257,2000,01,03,11,00,AAXX 03114 03257 42575 52417 10078 20031 40133 51018 81104 333 81820 85075 90710 91126=
03257,2000,01,03,12,00,AAXX 03124 03257 32575 72413 10083 20031 40135 52009 83802 333 81820 83635 86075 90710 91127=
03257,2000,01,03,13,00,AAXX 03134 03257 42575 62412 10086 20032 40133 50005 868/2 333 81820 86630=
03257,2000,01,03,14,00,AAXX 03144 03257 42575 72413 10084 20027 40129 58004 868/2 333 81822 86635=
03257,2000,01,03,15,00,AAXX 03154 03257 42575 82414 10078 20025 40126 57009 85807 333 81822 85635 88270=
03257,2000,01,03,16,00,AAXX 03164 03257 42572 82515 10076 20022 40127 55006 8382/ 333 81822 83635 88465=
03257,2000,01,03,17,00,AAXX 03174 03257 42672 82513 10074 20024 40132 53003 8352/ 333 83635 88462=
03257,2000,01,03,18,00,AAXX 03184 03257 32672 82305 10058 20026 40133 51006 8252/ 333 10092 82635 88462=
03257,2000,01,03,19,00,AAXX 03194 03257 42670 70000 10058 20027 40139 52011 8257/ 333 82630 87362=
03257,2000,01,03,20,00,AAXX 03204 03257 42570 62304 10060 20019 40142 53009 865// 333 86628=
03257,2000,01,03,21,00,AAXX 03214 03257 42570 12609 10048 20007 40136 50003 81500 333 81625=
03257,2000,01,03,22,00,AAXX 03224 03257 42570 12403 10044 20008 40139 55000 81500 333 81625=
03257,2000,01,03,23,00,AAXX 03234 03257 42570 21506 10047 20009 40148 53006 82500 333 82621=
03257,2000,01,04,00,00,AAXX 04004 03257 32570 11705 10054 20011 40146 50010 81500 333 81620=
03257,2000,01,04,01,00,AAXX 04014 03257 42970 02207 10038 20007 40143 50004=
03257,2000,01,04,02,00,AAXX 04024 03257 42975 11710 10039 20005 40135 58013 80001 333 81070=
03257,2000,01,04,03,00,AAXX 04034 03257 42670 71812 10029 20011 40137 55009 81501 333 81638 87070=
03257,2000,01,04,04,00,AAXX 04044 03257 42670 71408 10032 20018 40128 57015 83501 333 83645 87070=
03257,2000,01,04,05,00,AAXX 04054 03257 42665 71816 10038 20022 40119 58016 85501 333 85642 87070=
03257,2000,01,04,06,00,AAXX 04064 03257 32462 71513 10037 20021 40113 56024 875// 333 20020 31103 83615 87638=
03257,2000,01,04,07,00,AAXX 04074 03257 42458 61411 10032 20020 40105 57023 83501 333 81710 83622 85070=
03257,2000,01,04,08,00,AAXX 04084 03257 41558 71714 10029 20015 40093 58026 70522 82502 333 82625 87070=
03257,2000,01,04,09,00,AAXX 04094 03257 42561 71715 10028 20013 40084 57029 82502 333 81625 86072=
03257,2000,01,04,10,00,AAXX 04104 03257 42462 71514 10029 20013 40076 56029 82502 333 81619 87072=
03257,2000,01,04,11,00,AAXX 04114 03257 42562 71614 10035 20017 40061 58032 82552 333 81620 83362 87072=
03257,2000,01,04,12,00,AAXX 04124 03257 11565 71617 10041 20020 40042 58041 69901 76062 83572 333 81622 83645 86072=
03257,2000,01,04,13,00,AAXX 04134 03257 41664 71616 10043 20020 40025 57050 72162 81572 333 81630 87072 90710 91125=
03257,2000,01,04,14,00,AAXX 04144 03257 41457 82320 10043 20023 40035 55025 76062 885// 333 84615 88628 90710 91130 91030 96262=
03257,2000,01,04,15,00,AAXX 04154 03257 41581 52810 10046 20006 40039 55003 72162 82570 333 81620 84359 90710 91128=
03257,2000,01,04,16,00,AAXX 04164 03257 42482 12511 10033 20002 40047 52021 81870 333 81818=
03257,2000,01,04,17,00,AAXX 04174 03257 42480 12711 10036 21009 40058 53022 81800 333 81818=
03257,2000,01,04,18,00,AAXX 04184 03257 11580 12606 10028 21014 40073 53033 69982 70261 81800 333 10049 81820=
03257,2000,01,04,19,00,AAXX 04194 03257 42680 12710 10035 21019 40083 52036 81500 333 81640=
03257,2000,01,04,20,00,AAXX 04204 03257 42980 02512 10037 21012 40092 51034=
03257,2000,01,04,21,00,AAXX 04214 03257 42780 22512 10037 21010 40098 51025 82500 333 82650=
03257,2000,01,04,22,00,AAXX 04224 03257 42980 02414 10037 21008 40105 51022=
03257,2000,01,04,23,00,AAXX 04234 03257 42680 32109 10033 21005 40108 51016 83500 333 83645=
03257,2000,01,05,00,00,AAXX 05004 03257 32680 61808 10036 20000 40111 51013 865// 333 86640=
03257,2000,01,05,01,00,AAXX 05014 03257 42675 71914 10043 20008 40110 51005 875// 333 87645=
03257,2000,01,05,02,00,AAXX 05024 03257 42575 71714 10028 21004 40112 51004 875// 333 83625 87640=
03257,2000,01,05,03,00,AAXX 05034 03257 42675 31612 10030 21009 40112 53001 83500 333 83632=
03257,2000,01,05,04,00,AAXX 05044 03257 42675 31715 10031 21006 40105 58005 83500 333 81632 83650=
03257,2000,01,05,05,00,AAXX 05054 03257 42675 61613 10027 21003 40097 58015 8657/ 333 86648=
03257,2000,01,05,06,00,AAXX 05064 03257 32775 81614 10038 20003 40092 56020 885// 333 20025 31101 88650=
03257,2000,01,05,07,00,AAXX 05074 03257 42675 71614 10037 20003 40079 58026 875// 333 83630 87650=
03257,2000,01,05,08,00,AAXX 05084 03257 42470 61918 10037 20007 40075 57022 8453/ 333 82615 83650 85362 90710 91125=
03257,2000,01,05,09,00,AAXX 05094 03257 42472 71818 10041 20011 40072 56020 8353/ 333 81615 83630 86362=
03257,2000,01,05,10,00,AAXX 05104 03257 42472 71614 10046 20014 40071 56008 8553/ 333 81615 85622 87362 90710 91128=
03257,2000,01,05,11,00,AAXX 05114 03257 42472 71716 10050 20021 40062 58012 875// 333 87618=
03257,2000,01,05,12,00,AAXX 05124 03257 32470 71718 10056 20026 40052 58019 875// 333 87618 90710 91125=
03257,2000,01,05,13,00,AAXX 05134 03257 41465 71507 10055 20035 40046 57024 72162 8757/ 333 82615 85623 87656=
03257,2000,01,05,14,00,AAXX 05144 03257 42475 71818 10086 20047 40033 57029 84572 333 81615 83656 86360 90710 91129 91029=
03257,2000,01,05,15,00,AAXX 05154 03257 41575 71820 10091 20047 40025 57027 70162 81872 333 81820 83360 87072 90710 91129=
03257,2000,01,05,16,00,AAXX 05164 03257 42580 71917 10092 20044 40021 56025 84832 333 81820 84635 87072 90710 91127=
03257,2000,01,05,17,00,AAXX 05174 03257 42580 71817 10096 20036 40014 57018 85832 333 81820 85640 87072 90710 91128=
03257,2000,01,05,18,00,AAXX 05184 03257 11580 61816 10091 20038 40009 58016 69902 70162 82832 333 10098 81820 86072 90710 91129=
03257,2000,01,05,19,00,AAXX 05194 03257 42572 41610 10082 20041 40000 58021 82532 333 81620 84072=
03257,2000,01,05,21,00,AAXX 05214 03257 42565 81617 10102 20056 49980 57028 885// 333 88627=
03257,2000,01,05,22,00,AAXX 05224 03257 41560 81519 10098 20070 49968 58031 76062 885// 333 88622 90710 91127=
03257,2000,01,06,00,00,AAXX 06004 03257 11580 82320 10099 20048 49973 55007 69981 72161 885// 333 83620 88650 90710 91142 96263=
03257,2000,01,06,01,00,AAXX 06014 03257 42775 52119 10096 20044 49977 53009 81570 333 81650 85359 90710 91135 91035=
03257,2000,01,06,02,00,AAXX 06024 03257 42680 51918 10093 20038 49976 50010 82572 333 82632 83075 90710 91135 91028=
03257,2000,01,06,03,00,AAXX 06034 03257 42675 41918 10090 20037 49974 50001 82532 333 82630 90710 91128=
03257,2000,01,06,04,00,AAXX 06044 03257 42570 52119 10092 20038 49978 53001 85800 333 81825 85650 90710 91129 91029=
03257,2000,01,06,05,00,AAXX 06054 03257 42680 52218 10090 20035 49983 53007 85500 333 81630 85645 90710 91131=
03257,2000,01,06,06,00,AAXX 06064 03257 11570 72118 10091 20038 49990 53016 69982 78081 878// 333 20080 31006 82825 87640 90710 91132 91032=
03257,2000,01,06,07,00,AAXX 06074 03257 41564 52222 10084 20041 49993 52014 78082 85800 333 82820 84645 90710 91131=
03257,2000,01,06,08,00,AAXX 06084 03257 41568 22222 10084 20038 49998 52014 72581 82800 333 81820 90710 91133 91033=
03257,2000,01,06,09,00,AAXX 06094 03257 41570 22314 10081 20035 40010 53019 70181 81802 333 81820 90710 91132=
03257,2000,01,06,10,00,AAXX 06104 03257 42570 22516 10083 20039 40029 53036 81802 333 81820 90710 91126 91026=
03257,2000,01,06,11,00,AAXX 06114 03257 42575 22515 10088 20042 40040 52042 81802 333 81820=
03257,2000,01,06,12,00,AAXX 06124 03257 11588 23013 10087 20039 40052 52042 69901 70281 82800 333 81820 90710 91125=
03257,2000,01,06,13,00,AAXX 06134 03257 42588 23014 10084 20012 40079 52050 81832 333 81820 90710 91125=
03257,2000,01,06,14,00,AAXX 06144 03257 42586 13010 10073 20000 40094 52054 81101 333 81820=
03257,2000,01,06,15,00,AAXX 06154 03257 42584 13211 10063 21006 40104 51052 81801 333 81825=
03257,2000,01,06,16,00,AAXX 06164 03257 42582 22907 10036 21008 40117 51037 81131 333 81825=
03257,2000,01,06,17,00,AAXX 06174 03257 42680 13101 10035 21011 40127 51032 81501 333 81645=
03257,2000,01,06,18,00,AAXX 06184 03257 32980 11704 10023 21011 40134 52029 80001 333 10091 81075=
03257,2000,01,06,19,00,AAXX 06194 03257 42980 11603 10018 21016 40144 52027 80001 333 81075=
03257,2000,01,06,20,00,AAXX 06204 03257 42970 21808 10025 21027 40144 51017 80001 333 82075=
03257,2000,01,06,21,00,AAXX 06214 03257 42770 51706 10023 21022 40140 50006 81504 333 81650 85075=
03257,2000,01,06,22,00,AAXX 06224 03257 42766 31509 10017 21020 40142 55002 81502 333 81650 83075=
03257,2000,01,06,23,00,AAXX 06234 03257 42666 51712 10015 21008 40147 53003 81532 333 81635 85075=
03257,2000,01,07,00,00,AAXX 07004 03257 32665 61611 10020 20000 40141 50001 81572 333 81630 86360=
03257,2000,01,07,01,00,AAXX 07014 03257 42665 71410 10029 20008 40135 58007 81572 333 81635 83360 87075=
03257,2000,01,07,02,00,AAXX 07024 03257 42562 51515 10047 20011 40125 58022 82572 333 82622 83360=
03257,2000,01,07,03,00,AAXX 07034 03257 42565 41615 10047 20015 40117 56024 81532 333 81625 84075=
03257,2000,01,07,04,00,AAXX 07044 03257 42565 71914 10058 20024 40113 56022 83532 333 81625 83656 85361=
03257,2000,01,07,05,00,AAXX 07054 03257 42570 71611 10066 20026 40107 56017 875// 333 84621 87656=
03257,2000,01,07,06,00,AAXX 07064 03257 32470 71610 10064 20032 40101 58015 875// 333 20001 31106 86619=
03257,2000,01,07,07,00,AAXX 07074 03257 42570 71912 10076 20036 40098 57014 8657/ 333 82622 86636=
03257,2000,01,07,08,00,AAXX 07084 03257 42568 72114 10084 20039 40090 57017 875/2 333 81625 86657 90710 91125 91025=
03257,2000,01,07,09,00,AAXX 07094 03257 42568 72232 10091 20042 40076 58025 85532 333 81625 85657 85360 90710 91144 91044=
03257,2000,01,07,10,00,AAXX 07104 03257 42875 72127 10090 20040 40080 55018 85572 333 85657 85360 87075 90710 91143 91038=
03257,2000,01,07,11,00,AAXX 07114 03257 42880 72126 10095 20037 40075 57015 82532 333 82657 84360 87075 90710 91139 91037=
03257,2000,01,07,12,00,AAXX 07124 03257 32680 72126 10096 20038 40065 58011 83572 333 81630 83360 87075 90710 91140=
03257,2000,01,07,13,00,AAXX 07134 03257 42675 72124 10100 20038 40054 57026 83572 333 81630 83657 87075 90710 91140 91040=
03257,2000,01,07,14,00,AAXX 07144 03257 42675 72021 10097 20032 40046 57029 83572 333 82635 83362 87075 90710 91139 91032=
03257,2000,01,07,15,00,AAXX 07154 03257 42675 72127 10096 20035 40036 57029 8657/ 333 83630 85656 87362 90710 91138=
03257,2000,01,07,16,00,AAXX 07164 03257 42680 82024 10098 20033 40032 56022 885// 333 86630 88656 90710 91139=
03257,2000,01,07,17,00,AAXX 07174 03257 42580 82123 10097 20040 40023 57022 885// 333 87625 88656 90710 91134=
03257,2000,01,07,18,00,AAXX 07184 03257 32575 82029 10097 20048 40011 58024 885// 333 10101 88625 90710 91138=
03257,2000,01,07,19,00,AAXX 07194 03257 41575 81818 10099 20052 40014 55017 76062 885// 333 88620 90710 91135 91028=
03257,2000,01,07,20,00,AAXX 07204 03257 41470 81818 10094 20063 40011 57012 76166 885// 333 88616 90710 91131=
03257,2000,01,07,21,00,AAXX 07214 03257 41462 81916 10089 20072 40010 58002 76162 885// 333 88613 90710 91125=
03257,2000,01,07,22,00,AAXX 07224 03257 41575 72417 10077 20043 40017 53002 76166 875// 333 81625 87645 90710 91135 96265=
03257,2000,01,07,23,00,AAXX 07234 03257 41575 52314 10072 20041 40022 53010 72162 82532 333 81625 84075=
03257,2000,01,08,00,00,AAXX 08004 03257 11575 32413 10068 20022 40033 52023 60011 70161 82532 333 81625 90710 91126=
03257,2000,01,08,01,00,AAXX 08014 03257 42575 52313 10068 20018 40044 52027 85500 333 81625 85656=
03257,2000,01,08,02,00,AAXX 08024 03257 42875 12512 10057 21005 40044 51022 81500 333 81657 90710 91126=
03257,2000,01,08,03,00,AAXX 08034 03257 42775 12313 10054 20004 40054 52021 81500 333 81656=
03257,2000,01,08,04,00,AAXX 08044 03257 42675 12412 10052 21005 40059 52015 81500 333 81645=
03257,2000,01,08,05,00,AAXX 08054 03257 42675 12415 10054 20002 40063 51019 81500 333 81645=
03257,2000,01,08,06,00,AAXX 08064 03257 12780 12320 10052 21003 40065 51011 60012 81500 333 20047 31003 81650 90710 91127=
03257,2000,01,08,07,00,AAXX 08074 03257 42575 12419 10050 20002 40071 52012 81800 333 81820 90710 91130=
03257,2000,01,08,08,00,AAXX 08084 03257 42568 42417 10050 20006 40084 53020 84800 333 81820 84635 90710 91125=
03257,2000,01,08,09,00,AAXX 08094 03257 41568 32315 10052 20014 40093 52027 72581 83800 333 81822 83635 90710 91125=
03257,2000,01,08,10,00,AAXX 08104 03257 41568 42317 10063 20013 40100 51029 72580 84800 333 81822 83650 96015 99010=
03257,2000,01,08,11,00,AAXX 08114 03257 42570 22317 10065 20017 40104 51021 82800 333 81822 90710 91125=
03257,2000,01,08,12,00,AAXX 08124 03257 11468 32216 10069 20022 40107 51015 69901 78081 83900 333 81915 90710 91127=
03257,2000,01,08,13,00,AAXX 08134 03257 41470 42315 10075 20016 40107 51007 72580 84900 333 81915=
03257,2000,01,08,14,00,AAXX 08144 03257 42475 22313 10070 20012 40108 52004 82900 333 81915 90710 91128=
03257,2000,01,08,15,00,AAXX 08154 03257 41475 32413 10063 20007 40109 53002 72580 83900 333 81915 96015=
03257,2000,01,08,16,00,AAXX 08164 03257 41468 52414 10051 20011 40115 53007 72581 85900 333 82915 83642 90710 91130 91025 96015=
03257,2000,01,08,17,00,AAXX 08174 03257 41475 22210 10040 20013 40119 52010 72581 82900 333 81918 90710 91127=
03257,2000,01,08,18,00,AAXX 08184 03257 11475 12312 10037 20012 40124 52014 69962 72581 81900 333 10076 81918 90710 91128=
03257,2000,01,08,19,00,AAXX 08194 03257 42575 12611 10044 20004 40133 53018 81800 333 81826=
03257,2000,01,08,20,00,AAXX 08204 03257 42972 02407 10033 20000 40139 52020=
03257,2000,01,08,21,00,AAXX 08214 03257 42575 12511 10039 20003 40146 52022 81500 333 81625=
03257,2000,01,08,22,00,AAXX 08224 03257 42970 02712 10040 21007 40153 52020=
03257,2000,01,08,23,00,AAXX 08234 03257 42975 02711 10037 21007 40157 51018=
03257,2000,01,09,00,00,AAXX 09004 03257 32975 02512 10033 21008 40160 51014=
03257,2000,01,09,01,00,AAXX 09014 03257 42975 02610 10033 21012 40164 52011=
03257,2000,01,09,02,00,AAXX 09024 03257 42975 02508 10029 21013 40172 52015=
03257,2000,01,09,03,00,AAXX 09034 03257 42970 02709 10028 21010 40178 52018=
03257,2000,01,09,04,00,AAXX 09044 03257 42970 02104 10024 21011 40185 53021=
03257,2000,01,09,05,00,AAXX 09054 03257 42970 02613 10033 21009 40189 52017=
03257,2000,01,09,06,00,AAXX 09064 03257 32970 02710 10032 21007 40193 52015 333 20017 33102=
03257,2000,01,09,07,00,AAXX 09074 03257 42970 02902 10027 21003 40204 53019=
03257,2000,01,09,08,00,AAXX 09084 03257 42580 40000 10027 21003 40215 53025 81802 333 81820 83070=
03257,2000,01,09,09,00,AAXX 09094 03257 42581 52205 10020 21008 40226 52032 81802 333 81820 85070=
03257,2000,01,09,10,00,AAXX 09104 03257 42580 62707 10035 21001 40234 52030 81802 333 81820 85070=
03257,2000,01,09,11,00,AAXX 09114 03257 42581 22504 10029 20000 40246 52031 81802 333 81825=
03257,2000,01,09,12,00,AAXX 09124 03257 32582 12708 10052 20009 40252 51027 81102 333 81825=
03257,2000,01,09,13,00,AAXX 09134 03257 42582 12807 10059 20009 40253 51019 81802 333 81825=
03257,2000,01,09,14,00,AAXX 09144 03257 42682 12605 10062 20006 40260 52015 81100 333 81830=
03257,2000,01,09,15,00,AAXX 09154 03257 42682 12706 10053 20003 40269 53017 81800 333 81830=
03257,2000,01,09,16,00,AAXX 09164 03257 42682 12607 10031 21005 40277 52023 81800 333 81830=
03257,2000,01,09,17,00,AAXX 09174 03257 42680 10000 10030 21003 40285 52024 81802 333 81830=
03257,2000,01,09,18,00,AAXX 09184 03257 32680 10000 11002 21020 40292 52022 81502 333 10063 81645 92600=
03257,2000,01,09,19,00,AAXX 09194 03257 42675 10000 11012 21026 40299 51021 81502 333 81645 92600=
03257,2000,01,09,20,00,AAXX 09204 03257 42970 10000 11021 21030 40305 52019 80002 333 81070 92600=
03257,2000,01,09,21,00,AAXX 09214 03257 42968 10000 11002 21017 40305 51013 80002 333 81072 92600=
03257,2000,01,09,22,00,AAXX 09224 03257 42962 11406 10000 21014 40307 52009 80001 333 81072 92600=
03257,2000,01,09,23,00,AAXX 09234 03257 42964 11407 10000 21014 40307 51003 80001 333 81072 92600=
03257,2000,01,10,00,00,AAXX 10004 03257 31957 11504 11015 21026 40308 51002 70500 80002 333 81072 92600=
03257,2000,01,10,01,00,AAXX 10014 03257 41956 10000 11016 21027 40308 54000 70500 80002 333 81072 92611=
03257,2000,01,10,02,00,AAXX 10024 03257 41956 11507 11006 21015 40307 58001 70500 80002 333 81072 92611=
03257,2000,01,10,03,00,AAXX 10034 03257 41956 21611 11012 21017 40304 58004 71000 80002 333 82072 92611=
03257,2000,01,10,04,00,AAXX 10044 03257 41956 41507 11009 21016 40299 58009 71000 80002 333 84072 92611=
03257,2000,01,10,05,00,AAXX 10054 03257 41956 31609 11008 21018 40296 57011 71000 80002 333 83072 92611=
03257,2000,01,10,06,00,AAXX 10064 03257 31956 51613 11001 21016 40293 56010 70511 80002 333 21024 34108 85072 92611=
03257,2000,01,10,07,00,AAXX 10074 03257 41957 61917 10016 21015 40290 57008 70522 80002 333 86072 92600=
03257,2000,01,10,08,00,AAXX 10084 03257 42560 51507 10008 21006 40296 53001 81572 333 81625 84072=
03257,2000,01,10,09,00,AAXX 10094 03257 42965 71815 10019 21003 40288 57005 82032 333 82362 87072 92600=
03257,2000,01,10,10,00,AAXX 10104 03257 42565 71610 10009 21006 40282 58008 81572 333 81620 84363 87072=
03257,2000,01,10,11,00,AAXX 10114 03257 42565 71413 10030 20006 40278 57018 81572 333 81620 85365 87072=
03257,2000,01,10,12,00,AAXX 10124 03257 12565 71815 10046 20015 40272 57015 69921 82572 333 82620 86365 87072=
03257,2000,01,10,13,00,AAXX 10134 03257 42465 71709 10044 20018 40268 57013 8357/ 333 82617 87365=
03257,2000,01,10,14,00,AAXX 10144 03257 42570 71712 10063 20024 40264 57013 84572 333 84620 87365 87072=
03257,2000,01,10,15,00,AAXX 10154 03257 42575 71913 10066 20031 40263 56009 8557/ 333 85620 87360=
03257,2000,01,10,16,00,AAXX 10164 03257 42470 71914 10067 20036 40261 56007 8657/ 333 86618 87360=
03257,2000,01,10,17,00,AAXX 10174 03257 42470 71812 10070 20039 40259 58005 86572 333 86616 87360=
03257,2000,01,10,18,00,AAXX 10184 03257 32470 72110 10068 20042 40255 57008 8657/ 333 10071 86615 87359=
03257,2000,01,10,19,00,AAXX 10194 03257 42470 72312 10068 20046 40258 55003 82572 333 81615 85632 87070=
03257,2000,01,10,20,00,AAXX 10204 03257 42670 72314 10071 20048 40258 57001 875// 333 85645 87656=
03257,2000,01,10,21,00,AAXX 10214 03257 42465 82407 10073 20050 40263 52008 885// 333 81615 88645=
03257,2000,01,10,22,00,AAXX 10224 03257 41565 82313 10074 20054 40260 50002 76062 8657/ 333 81622 86640 88358=
03257,2000,01,10,23,00,AAXX 10234 03257 41565 72510 10078 20053 40267 52009 76062 8657/ 333 82628 85650 87358=
03257,2000,01,11,00,00,AAXX 11004 03257 11670 62111 10066 20054 40264 50001 69901 72162 81572 333 81630 84358 85072=
03257,2000,01,11,01,00,AAXX 11014 03257 42670 31907 10058 20046 40263 50003 82532 333 82630=
03257,2000,01,11,02,00,AAXX 11024 03257 41665 71607 10067 20057 40265 55002 72161 875// 333 81630 87650=
03257,2000,01,11,03,00,AAXX 11034 03257 41665 71608 10068 20057 40268 53004 70261 875// 333 83630 86656=
03257,2000,01,11,04,00,AAXX 11044 03257 42670 81708 10080 20061 40265 50002 885// 333 81630 88650=
03257,2000,01,11,05,00,AAXX 11054 03257 42565 81606 10077 20057 40263 58002 885// 333 83627 88650=
03257,2000,01,11,06,00,AAXX 11064 03257 11562 71808 10067 20049 40266 55002 69902 70161 875/2 333 20058 31004 81625 87645=
03257,2000,01,11,07,00,AAXX 11074 03257 42562 71906 10066 20054 40265 54000 875// 333 81620 83645 87656=
03257,2000,01,11,08,00,AAXX 11084 03257 41557 71907 10075 20055 40260 58003 70422 865/2 333 81620 86645 87072=
03257,2000,01,11,09,00,AAXX 11094 03257 41258 71708 10074 20063 40265 55001 71022 875// 333 81703 87632=
03257,2000,01,11,10,00,AAXX 11104 03257 41256 71709 10073 20066 40258 58007 76022 875// 333 81703 84618 87630=
03257,2000,01,11,11,00,AAXX 11114 03257 41230 81509 10078 20072 40255 58005 76166 885// 333 84703 88615=
03257,2000,01,11,12,00,AAXX 11124 03257 11238 81713 10088 20082 40245 58020 69901 76162 885// 333 82704 83710 88617=
03257,2000,01,11,13,00,AAXX 11134 03257 41445 81815 10094 20085 40232 58025 76166 885// 333 88614=
03257,2000,01,11,14,00,AAXX 11144 03257 41458 81915 10097 20083 40226 56028 76166 885// 333 86616 88622=
03257,2000,01,11,15,00,AAXX 11154 03257 41465 81918 10099 20080 40219 56025 76166 885// 333 88615 90710 91127=
03257,2000,01,11,16,00,AAXX 11164 03257 41462 82019 10100 20074 40215 56017 76166 885// 333 86618 88626 90710 91129=
03257,2000,01,11,17,00,AAXX 11174 03257 41468 81917 10096 20070 40208 57018 76062 885// 333 88618 90710 91126=
03257,2000,01,11,18,00,AAXX 11184 03257 11472 81918 10095 20068 40199 58020 69902 76162 885// 333 10102 88617 90710 91128=
03257,2000,01,11,19,00,AAXX 11194 03257 41475 81918 10097 20066 40195 56020 72162 885// 333 88618 90710 91127=
03257,2000,01,11,20,00,AAXX 11204 03257 41475 82022 10099 20066 40191 56017 76022 885// 333 88617 90710 91130=
03257,2000,01,11,21,00,AAXX 11214 03257 41475 82021 10094 20067 40189 57010 76162 885// 333 88618 90710 91130=
03257,2000,01,11,22,00,AAXX 11224 03257 41470 82020 10096 20065 40189 56006 76166 8757/ 333 87618 88358 90710 91130=
03257,2000,01,11,23,00,AAXX 11234 03257 41470 82020 10093 20069 40187 57004 76166 8757/ 333 87617 88358 90710 91134=
03257,2000,01,12,00,00,AAXX 12004 03257 11470 82019 10093 20068 40180 58009 69901 76162 885// 333 87617 88656 90710 91131 91029=
03257,2000,01,12,01,00,AAXX 12014 03257 41470 82018 10093 20068 40179 56010 76166 885// 333 87618 88656 90710 91126=
03257,2000,01,12,02,00,AAXX 12024 03257 41470 82119 10093 20069 40174 57013 72162 885// 333 87618 88656 90710 91126=
03257,2000,01,12,03,00,AAXX 12034 03257 41480 82117 10097 20066 40172 58008 76062 885// 333 87618 88656 90710 91127=
03257,2000,01,12,04,00,AAXX 12044 03257 41475 82017 10095 20063 40169 57010 76062 885// 333 86618 88656 90710 91127=
03257,2000,01,12,05,00,AAXX 12054 03257 41475 82014 10092 20064 40164 57010 72162 885// 333 87618 88656 90710 91131=
03257,2000,01,12,06,00,AAXX 12064 03257 11475 82015 10091 20062 40163 56009 69922 76062 885// 333 20090 31008 87616 88656 90710 91128=
03257,2000,01,12,07,00,AAXX 12074 03257 41475 82011 10086 20063 40161 57008 76166 885// 333 87616 88656=
03257,2000,01,12,08,00,AAXX 12084 03257 41475 82113 10089 20062 40161 56003 72162 885// 333 87618 88650=
03257,2000,01,12,09,00,AAXX 12094 03257 41465 82207 10083 20067 40162 55001 76062 885// 333 82711 85620 88635 90710 91125=
03257,2000,01,12,10,00,AAXX 12104 03257 41466 82306 10074 20060 40162 52001 72162 888// 333 81812 83625 88642=
03257,2000,01,12,11,00,AAXX 12114 03257 41466 82505 10075 20056 40165 52004 76062 885// 333 81615 83622 88630=
03257,2000,01,12,12,00,AAXX 12124 03257 11468 82304 10074 20055 40159 58003 69961 76162 885// 333 81615 85620 88635=
03257,2000,01,12,13,00,AAXX 12134 03257 41462 82803 10070 20054 40154 58009 76366 885// 333 84618 88632=
03257,2000,01,12,14,00,AAXX 12144 03257 41362 80000 10069 20059 40147 57019 76366 885// 333 81708 83620 88630=
03257,2000,01,12,15,00,AAXX 12154 03257 41362 80000 10065 20053 40147 56013 76366 8172/ 333 81708 88522=
03257,2000,01,12,16,00,AAXX 12164 03257 41562 80000 10061 20050 40142 57012 76366 8802/ 333 88524=
03257,2000,01,12,17,00,AAXX 12174 03257 41360 80000 10060 20050 40141 57006 76366 8272/ 333 82708 88522=
03257,2000,01,12,18,00,AAXX 12184 03257 11356 80000 10058 20051 40138 57009 60062 76366 8272/ 333 10091 82708 88520=
03257,2000,01,12,19,00,AAXX 12194 03257 41340 80000 10052 20049 40133 58009 76366 8172/ 333 81708 88522=
03257,2000,01,12,20,00,AAXX 12204 03257 41340 83506 10051 20049 40129 57012 76366 8272/ 333 82706 88518=
03257,2000,01,12,21,00,AAXX 12214 03257 41356 83308 10041 20033 40131 55007 76366 8472/ 333 82706 83712 88516=
03257,2000,01,12,22,00,AAXX 12224 03257 41350 83411 10024 20015 40133 55000 76366 887// 333 85707 88711=
03257,2000,01,12,23,00,AAXX 12234 03257 41245 83408 10013 20007 40135 52006 76866 887// 333 88705=
03257,2000,01,13,00,00,AAXX 13004 03257 11232 83306 10004 20001 40134 50002 60081 77176 887// 333 41998 88705 92741 96269=
03257,2000,01,13,01,00,AAXX 13014 03257 41240 83305 10005 20002 40136 52002 77177 887// 333 41998 88705 92740=
03257,2000,01,13,02,00,AAXX 13024 03257 41357 83306 10010 20006 40134 57001 76877 885// 333 41998 82707 83618 88624 92748=
03257,2000,01,13,03,00,AAXX 13034 03257 41556 83108 10013 20009 40133 50000 76877 885// 333 81623 88628=
03257,2000,01,13,04,00,AAXX 13044 03257 41465 83307 10016 20008 40135 55000 76176 885// 333 81619 87622 88627=
03257,2000,01,13,05,00,AAXX 13054 03257 41575 83104 10016 20009 40134 50000 76166 885// 333 88620=
03257,2000,01,13,06,00,AAXX 13064 03257 11580 82902 10013 20003 40135 51002 60102 72176 8357/ 333 20004 31101 83625 88358=
03257,2000,01,13,07,00,AAXX 13074 03257 42982 82804 10016 20002 40139 53004 8807/ 333 88358=
03257,2000,01,13,08,00,AAXX 13084 03257 42480 62704 10003 21011 40146 53011 81532 333 81615 85075=
03257,2000,01,13,09,00,AAXX 13094 03257 42582 32906 10005 21014 40149 52013 81132 333 81820 83075=
03257,2000,01,13,10,00,AAXX 13104 03257 42584 23405 10011 21015 40152 52012 81132 333 81820=
03257,2000,01,13,11,00,AAXX 13114 03257 42584 13205 10026 21001 40154 52009 81132 333 81820=
03257,2000,01,13,12,00,AAXX 13124 03257 32586 13104 10040 20009 40153 50005 81132 333 81822=
03257,2000,01,13,13,00,AAXX 13134 03257 42586 13208 10045 20004 40151 50000 81802 333 81822=
03257,2000,01,13,14,00,AAXX 13144 03257 42586 43209 10049 20011 40155 53001 84800 333 83822=
03257,2000,01,13,15,00,AAXX 13154 03257 42584 50108 10037 20008 40158 53005 85800 333 85823=
03257,2000,01,13,16,00,AAXX 13164 03257 42582 73607 10027 20003 40166 53015 878// 333 87820=
03257,2000,01,13,17,00,AAXX 13174 03257 42580 23508 10022 21005 40172 52017 82800 333 81820=
03257,2000,01,13,18,00,AAXX 13184 03257 32580 13308 10012 21007 40180 52021 81800 333 10050 81820 92600=
03257,2000,01,13,19,00,AAXX 13194 03257 42580 13310 10012 21004 40183 51016 81500 333 81625 92600=
03257,2000,01,13,20,00,AAXX 13204 03257 42465 73308 10021 21002 40190 52017 878// 333 83815 86624=
03257,2000,01,13,21,00,AAXX 13214 03257 41350 83414 10010 20003 40196 52016 78581 889// 333 84706 87912=
03257,2000,01,13,22,00,AAXX 13224 03257 41345 80110 10022 20013 40206 52023 78182 889// 333 83706 87912 96285 96283=
03257,2000,01,13,23,00,AAXX 13234 03257 41335 80107 10010 20005 40212 52022 76987 885// 333 83706 88612 96281 96285 96284=
03257,2000,01,14,00,00,AAXX 14004 03257 11462 83208 10023 20015 40210 50014 60081 76887 885// 333 82611 87618 96269=
03257,2000,01,14,01,00,AAXX 14014 03257 41470 83312 10032 20018 40211 52006 72372 885// 333 83618 87628=
03257,2000,01,14,02,00,AAXX 14024 03257 41456 83312 10037 20023 40216 53005 76872 885// 333 84615 87628=
03257,2000,01,14,03,00,AAXX 14034 03257 41456 83511 10036 20022 40222 53013 76976 885// 333 84615 88625=
03257,2000,01,14,04,00,AAXX 14044 03257 41475 33414 10028 20013 40227 52015 72376 83800 333 81817 83627=
03257,2000,01,14,05,00,AAXX 14054 03257 41475 53414 10032 20017 40233 52016 72581 85800 333 82818 84628=
03257,2000,01,14,06,00,AAXX 14064 03257 11475 43415 10034 20011 40239 53016 60092 70187 84800 333 20007 31103 81818 84628=
03257,2000,01,14,07,00,AAXX 14074 03257 41457 53518 10033 20015 40247 53020 78081 85800 333 82818 84628 90710 91126=
03257,2000,01,14,08,00,AAXX 14084 03257 41462 53516 10034 20013 40252 52019 72582 85800 333 83815 83628 90710 91129=
03257,2000,01,14,09,00,AAXX 14094 03257 41465 73418 10031 20014 40258 51019 78081 879// 333 81710 82912 86628 90710 91128=
03257,2000,01,14,10,00,AAXX 14104 03257 41472 43418 10037 20015 40258 51011 72581 84930 333 81912 83630 90710 91130=
03257,2000,01,14,11,00,AAXX 14114 03257 41465 73418 10044 20019 40262 52011 78011 879// 333 81912 83815 87628 90710 91128=
03257,2000,01,14,12,00,AAXX 14124 03257 11465 63519 10051 20018 40263 53006 60011 72581 869// 333 81912 85628 90710 91129 91029=
03257,2000,01,14,13,00,AAXX 14134 03257 41458 70126 10044 20019 40265 50008 78082 879// 333 83912 83818 85628 90710 91135=
03257,2000,01,14,14,00,AAXX 14144 03257 41475 53620 10041 20018 40268 53005 78082 85900 333 81914 83818 90710 91139 96289 93206=
03257,2000,01,14,15,00,AAXX 14154 03257 41458 73622 10047 20025 40274 53024 78082 879// 333 82914 84817 86630 90710 91135 91035 96489=
03257,2000,01,14,16,00,AAXX 14164 03257 41458 53521 10045 20021 40283 53017 78081 85900 333 81914 83818 90710 91135=
03257,2000,01,14,17,00,AAXX 14174 03257 41470 73617 10042 20017 40295 53027 72582 878// 333 82818 87632 90710 91129=
03257,2000,01,14,18,00,AAXX 14184 03257 11458 73618 10038 20014 40305 52030 60032 78081 878// 333 10049 84815 87625 90710 91126 96489=
03257,2000,01,14,19,00,AAXX 14194 03257 41435 70118 10029 20018 40313 52030 78488 879// 333 82912 86816 90710 91130 96288=
03257,2000,01,14,20,00,AAXX 14204 03257 41458 70115 10029 20019 40325 52030 78082 879// 333 81912 83816 87628 90710 91127 96284=
03257,2000,01,14,21,00,AAXX 14214 03257 41557 80119 10038 20022 40329 51028 78082 888// 333 83820 85630 88656 90710 91130 91030 96284=
03257,2000,01,14,22,00,AAXX 14224 03257 41457 70215 10036 20019 40340 52025 78082 878// 333 85819 87656 90710 91128=
03257,2000,01,14,23,00,AAXX 14234 03257 41460 70116 10031 20020 40348 52027 78082 878// 333 81711 84822 86650 90710 91126 96284=
03257,2000,01,15,00,00,AAXX 15004 03257 11565 73512 10034 20020 40354 51022 60101 72582 878// 333 81820 87650=
03257,2000,01,15,01,00,AAXX 15014 03257 41565 70213 10038 20014 40359 51024 72582 878// 333 81820 83643 87656=
03257,2000,01,15,02,00,AAXX 15024 03257 41570 70111 10033 20015 40364 52017 72582 878// 333 81820 87650=
03257,2000,01,15,03,00,AAXX 15034 03257 41575 73508 10033 20018 40370 52017 70382 878// 333 82822 83632 86650=
03257,2000,01,15,04,00,AAXX 15044 03257 41575 73508 10034 20015 40376 52017 72582 878// 333 85823 87650=
03257,2000,01,15,05,00,AAXX 15054 03257 42575 73407 10030 20013 40383 52019 878// 333 85823 87650=
03257,2000,01,15,06,00,AAXX 15064 03257 11575 73510 10025 20006 40386 51019 60102 70282 875// 333 20021 31100 83628 86650=
03257,2000,01,15,07,00,AAXX 15074 03257 42680 33608 10016 21002 40395 52015 83500 333 81630 83650=
03257,2000,01,15,08,00,AAXX 15084 03257 42584 33405 10006 21008 40400 52017 83800 333 81820 83640 92600=
03257,2000,01,15,09,00,AAXX 15094 03257 42684 43305 10012 21005 40409 52021 84500 333 84635=
03257,2000,01,15,10,00,AAXX 15104 03257 42684 13602 10016 21004 40413 52018 81500 333 81640=
03257,2000,01,15,11,00,AAXX 15114 03257 42582 63303 10033 20012 40419 52019 868// 333 81820 86635=
03257,2000,01,15,12,00,AAXX 15124 03257 32582 73307 10036 20013 40420 51012 878// 333 81820 87630=
03257,2000,01,15,13,00,AAXX 15134 03257 42582 73505 10042 20019 40421 51012 878// 333 81825 87635=
03257,2000,01,15,14,00,AAXX 15144 03257 42586 73407 10046 20015 40421 51002 878// 333 81825 87635=
03257,2000,01,15,15,00,AAXX 15154 03257 42586 73207 10043 20015 40420 52003 878// 333 81825 87635=
03257,2000,01,15,16,00,AAXX 15164 03257 42586 73004 10037 20009 40420 57002 868/1 333 81825 86635=
03257,2000,01,15,17,00,AAXX 15174 03257 42686 73105 10025 20001 40424 57001 875/2 333 87635=
03257,2000,01,15,18,00,AAXX 15184 03257 32686 73305 10032 20005 40424 52002 875// 333 10046 87635=
03257,2000,01,15,19,00,AAXX 15194 03257 42584 73007 10033 20004 40423 50006 875// 333 87628=
03257,2000,01,15,20,00,AAXX 15204 03257 42584 72805 10029 20005 40420 58003 875// 333 87625=
03257,2000,01,15,21,00,AAXX 15214 03257 42582 63006 10023 20001 40423 55002 865// 333 86625=
03257,2000,01,15,22,00,AAXX 15224 03257 42581 62806 10012 21007 40426 53002 865// 333 86625=
03257,2000,01,15,23,00,AAXX 15234 03257 42580 32904 10009 21012 40429 53008 83500 333 83625=
03257,2000,01,16,00,00,AAXX 16004 03257 32575 12702 11005 21023 40429 51006 81500 333 81625 92600=
03257,2000,01,16,01,00,AAXX 16014 03257 42575 13004 11005 21023 40424 58002 81502 333 81625 92600=
03257,2000,01,16,02,00,AAXX 16024 03257 42575 13104 10002 21018 40423 58006 81502 333 81625 92600=
03257,2000,01,16,03,00,AAXX 16034 03257 42575 12802 11001 21016 40421 56008 81500 333 81625 92600=
03257,2000,01,16,04,00,AAXX 16044 03257 42570 30000 11016 21034 40414 58010 81504 333 81625 83075 92600=
03257,2000,01,16,05,00,AAXX 16054 03257 42970 60000 11020 21038 40415 55008 81034 333 81362 86075 92600=
03257,2000,01,16,06,00,AAXX 16064 03257 32970 60000 11025 21035 40413 56008 81032 333 21033 34107 81362 86075 92611=
03257,2000,01,16,07,00,AAXX 16074 03257 42970 61605 11007 21017 40410 58004 81032 333 81362 86075 92611=
03257,2000,01,16,08,00,AAXX 16084 03257 42475 60000 11025 21041 40410 56005 81532 333 81615 86075 92611=
03257,2000,01,16,09,00,AAXX 16094 03257 42480 60000 11013 21018 40407 57006 81532 333 81615 86075 92600=
03257,2000,01,16,10,00,AAXX 16104 03257 42580 71304 10002 21009 40412 52002 81532 333 81620 87075 92600=
03257,2000,01,16,11,00,AAXX 16114 03257 42584 50000 10007 21015 40413 53003 81532 333 81620 85075=
03257,2000,01,16,12,00,AAXX 16124 03257 32582 70000 10043 20004 40408 50002 81502 333 81625 87075=
03257,2000,01,16,13,00,AAXX 16134 03257 42584 71803 10042 20011 40399 58012 81532 333 81625 87075=
03257,2000,01,16,14,00,AAXX 16144 03257 42584 70000 10051 20021 40395 57017 81532 333 81625 87075=
03257,2000,01,16,15,00,AAXX 16154 03257 42582 70000 10053 20027 40395 56013 81532 333 81625 87072=
03257,2000,01,16,16,00,AAXX 16164 03257 42582 72908 10048 20028 40397 55002 81572 333 81620 87072=
03257,2000,01,16,17,00,AAXX 16174 03257 42582 62709 10043 20026 40395 50000 81502 333 81620 86072=
03257,2000,01,16,18,00,AAXX 16184 03257 32981 52710 10043 20024 40391 58003 80002 333 10057 85075=
03257,2000,01,16,19,00,AAXX 16194 03257 42981 52909 10043 20023 40392 55005 80002 333 85075=
03257,2000,01,16,20,00,AAXX 16204 03257 42981 53107 10033 20017 40392 55003 80002 333 85075=
03257,2000,01,16,21,00,AAXX 16214 03257 42980 53103 10024 20007 40393 52002 80002 333 85075=
03257,2000,01,16,22,00,AAXX 16224 03257 42980 50000 10023 20008 40388 58004 80001 333 85075=
03257,2000,01,16,23,00,AAXX 16234 03257 42980 73402 10022 20009 40383 58009 80002 333 87075=
03257,2000,01,17,00,00,AAXX 17004 03257 32980 72805 10022 21005 40380 58013 80002 333 87075=
03257,2000,01,17,01,00,AAXX 17014 03257 42980 73105 10036 20004 40378 57010 80002 333 87075=
03257,2000,01,17,02,00,AAXX 17024 03257 42980 62707 10038 21006 40375 57008 80001 333 86070=
03257,2000,01,17,03,00,AAXX 17034 03257 42980 52807 10042 21002 40369 58011 80001 333 85070=
03257,2000,01,17,04,00,AAXX 17044 03257 42982 52708 10042 21001 40365 57013 80002 333 85070=
03257,2000,01,17,05,00,AAXX 17054 03257 42980 42509 10041 20004 40358 58017 80002 333 84070=
03257,2000,01,17,06,00,AAXX 17064 03257 32980 42304 10016 21004 40360 55009 80001 333 20009 34104 84070=
03257,2000,01,17,07,00,AAXX 17074 03257 42980 52909 10048 20002 40362 55003 80001 333 85070=
03257,2000,01,17,08,00,AAXX 17084 03257 42980 53207 10038 20001 40364 52006 80001 333 85070=
03257,2000,01,17,09,00,AAXX 17094 03257 42989 23305 10014 21007 40367 52007 80002 333 82075=
03257,2000,01,17,10,00,AAXX 17104 03257 42989 10604 10019 21011 40368 51007 80002 333 81075=
03257,2000,01,17,11,00,AAXX 17114 03257 42989 10404 10039 20009 40372 52007 80002 333 81075=
03257,2000,01,17,12,00,AAXX 17124 03257 32989 10000 10072 20016 40373 52007 80002 333 81075=
03257,2000,01,17,13,00,AAXX 17134 03257 42988 00000 10078 20028 40369 50002=
03257,2000,01,17,14,00,AAXX 17144 03257 42988 00000 10083 20020 40367 58004=
03257,2000,01,17,15,00,AAXX 17154 03257 42986 00000 10082 20030 40369 55004=
03257,2000,01,17,16,00,AAXX 17164 03257 42980 10000 10057 20028 40369 57001 80001 333 81075=
03257,2000,01,17,17,00,AAXX 17174 03257 42975 00000 10010 20001 40369 50000=
03257,2000,01,17,18,00,AAXX 17184 03257 32975 00000 10019 20004 40373 52003 333 10091 92600=
03257,2000,01,17,19,00,AAXX 17194 03257 42982 02709 10029 20000 40369 54000=
03257,2000,01,17,20,00,AAXX 17204 03257 42982 03304 10024 20001 40370 52002=
03257,2000,01,17,21,00,AAXX 17214 03257 42980 00000 10007 21010 40368 57006=
03257,2000,01,17,22,00,AAXX 17224 03257 42980 10000 10002 21012 40362 58008 80002 333 81075=
03257,2000,01,17,23,00,AAXX 17234 03257 42670 20000 11011 21021 40362 56009 81501 333 81635=
03257,2000,01,18,00,00,AAXX 18004 03257 32670 20000 11009 21019 40359 57009 81501 333 81635 92600=
03257,2000,01,18,01,00,AAXX 18014 03257 42980 12806 10030 20013 40356 58006 80001 333 81075 92600=
03257,2000,01,18,02,00,AAXX 18024 03257 42975 13504 10010 21004 40355 56006 80001 333 81075 92600=
03257,2000,01,18,03,00,AAXX 18034 03257 42470 13003 11018 21020 40352 57007 81500 333 81615 92600=
03257,2000,01,18,04,00,AAXX 18044 03257 42475 11001 10002 20002 40351 58005 81500 333 81615 92600=
03257,2000,01,18,05,00,AAXX 18054 03257 42475 10000 11010 21017 40354 55002 81500 333 81615 92600=
03257,2000,01,18,06,00,AAXX 18064 03257 32780 10000 11017 21025 40350 57002 81500 333 21020 34105 81650 92600=
03257,2000,01,18,07,00,AAXX 18074 03257 42680 10000 11015 21020 40352 52001 81500 333 81630 92600=
03257,2000,01,18,08,00,AAXX 18084 03257 41680 12805 11003 21015 40354 55000 71100 81502 333 81630 92600=
03257,2000,01,18,09,00,AAXX 18094 03257 41481 72905 10042 20024 40364 53015 71111 84802 333 81818 84630 86075=
03257,2000,01,18,10,00,AAXX 18104 03257 42581 73104 10043 20029 40367 52016 878// 333 81820 86628=
03257,2000,01,18,11,00,AAXX 18114 03257 42581 73104 10056 20041 40371 51018 878// 333 81820 87626=
03257,2000,01,18,12,00,AAXX 18124 03257 32581 70000 10056 20046 40370 50006 878// 333 81820 87625=
03257,2000,01,18,13,00,AAXX 18134 03257 42581 73301 10073 20049 40367 50001 875// 333 81620 87625=
03257,2000,01,18,14,00,AAXX 18144 03257 42582 73304 10073 20050 40366 57004 875// 333 87625=
03257,2000,01,18,15,00,AAXX 18154 03257 42582 73610 10076 20039 40368 55001 875// 333 87624=
03257,2000,01,18,16,00,AAXX 18164 03257 42581 73506 10070 20041 40368 50000 875// 333 87623=
03257,2000,01,18,17,00,AAXX 18174 03257 42581 73309 10073 20039 40367 50001 875// 333 87624=
03257,2000,01,18,18,00,AAXX 18184 03257 32582 80111 10073 20034 40369 53001 885// 333 10077 88626=
03257,2000,01,18,19,00,AAXX 18194 03257 42581 83405 10065 20040 40373 53005 885// 333 88626=
03257,2000,01,18,20,00,AAXX 18204 03257 42580 82804 10062 20043 40372 50004 885// 333 88627=
03257,2000,01,18,21,00,AAXX 18214 03257 42580 73206 10066 20039 40371 50001 875// 333 85628 87640=
03257,2000,01,18,22,00,AAXX 18224 03257 42575 73105 10063 20041 40368 58005 875// 333 81625 87640=
03257,2000,01,18,23,00,AAXX 18234 03257 42675 73207 10069 20039 40368 56004 875// 333 87637=
03257,2000,01,19,00,00,AAXX 19004 03257 32675 73206 10063 20038 40367 57004 875// 333 87640=
03257,2000,01,19,01,00,AAXX 19014 03257 42675 73307 10064 20037 40368 55000 875// 333 87636=
03257,2000,01,19,02,00,AAXX 19024 03257 42675 73205 10059 20039 40368 54000 875// 333 87635=
03257,2000,01,19,03,00,AAXX 19034 03257 42670 73306 10061 20036 40372 53005 875// 333 87640=
03257,2000,01,19,04,00,AAXX 19044 03257 42670 73306 10061 20033 40374 52006 875// 333 83632 87641=
03257,2000,01,19,05,00,AAXX 19054 03257 42565 73306 10055 20030 40372 50004 875// 333 81622 87635=
03257,2000,01,19,06,00,AAXX 19064 03257 32680 73206 10050 20031 40373 52001 875/2 333 20050 31003 85630 84640=
03257,2000,01,19,07,00,AAXX 19074 03257 42680 33206 10047 20027 40373 55001 83502 333 81630 83640=
03257,2000,01,19,08,00,AAXX 19084 03257 42580 43406 10031 20014 40378 53006 82502 333 82628 83075=
03257,2000,01,19,09,00,AAXX 19094 03257 42584 33002 10019 20011 40385 53012 81501 333 81620 83070=
03257,2000,01,19,10,00,AAXX 19104 03257 42484 33305 10035 20017 40390 52017 81501 333 81618 83070=
03257,2000,01,19,11,00,AAXX 19114 03257 42580 43306 10056 20029 40391 51013 81501 333 81620 84070=
03257,2000,01,19,12,00,AAXX 19124 03257 32580 73408 10066 20033 40388 50003 81101 333 81820 87070=
03257,2000,01,19,13,00,AAXX 19134 03257 42580 73408 10063 20031 40385 58005 81101 333 81820 87070=
03257,2000,01,19,14,00,AAXX 19144 03257 42484 73306 10068 20026 40382 57009 81101 333 81818 87070=
03257,2000,01,19,15,00,AAXX 19154 03257 42582 73405 10061 20027 40380 57008 81501 333 81620 87070=
03257,2000,01,19,16,00,AAXX 19164 03257 42582 70000 10047 20022 40382 55003 81501 333 81620 87070=
03257,2000,01,19,17,00,AAXX 19174 03257 42982 72102 10028 20008 40382 54000 80002 333 87070=
03257,2000,01,19,18,00,AAXX 19184 03257 32980 72304 10008 21003 40380 57001 80002 333 10070 87070=
03257,2000,01,19,19,00,AAXX 19194 03257 42970 72403 10004 21004 40379 56004 80001 333 87070=
03257,2000,01,19,20,00,AAXX 19204 03257 42670 73002 11001 21010 40380 55003 81501 333 81630 87070=
03257,2000,01,19,21,00,AAXX 19214 03257 42670 52501 10002 21009 40377 57003 82501 333 82630 84070=
03257,2000,01,19,22,00,AAXX 19224 03257 42670 72603 11002 21008 40374 58005 875// 333 87632=
03257,2000,01,19,23,00,AAXX 19234 03257 42665 72706 10024 20007 40367 58012 875// 333 87630=
03257,2000,01,20,00,00,AAXX 20004 03257 32562 82202 10022 20011 40363 57013 885// 333 88628=
03257,2000,01,20,01,00,AAXX 20014 03257 42562 82204 10021 20008 40355 57018 885// 333 88622=
03257,2000,01,20,02,00,AAXX 20024 03257 42562 82504 10037 20017 40350 57017 885// 333 84625 88630=
03257,2000,01,20,03,00,AAXX 20034 03257 42562 72307 10040 20020 40345 56018 875// 333 87629=
03257,2000,01,20,04,00,AAXX 20044 03257 42665 82706 10047 20023 40335 58020 885// 333 88630=
03257,2000,01,20,05,00,AAXX 20054 03257 42570 72503 10041 20023 40328 57022 875// 333 87628=
03257,2000,01,20,06,00,AAXX 20064 03257 32570 72604 10043 20014 40324 56021 875// 333 21010 31106 87628=
03257,2000,01,20,07,00,AAXX 20074 03257 42575 62905 10038 20005 40322 56013 85501 333 83625 83636=
03257,2000,01,20,08,00,AAXX 20084 03257 42575 72604 10030 20006 40320 56008 82502 333 81622 87070=
03257,2000,01,20,09,00,AAXX 20094 03257 41572 72506 10035 20015 40321 55003 76062 875// 333 83625 87635=
03257,2000,01,20,10,00,AAXX 20104 03257 41575 72909 10052 20028 40320 57002 72162 875/2 333 82622 86635=
03257,2000,01,20,11,00,AAXX 20114 03257 42575 62908 10058 20031 40320 52001 82532 333 81622 86072=
03257,2000,01,20,12,00,AAXX 20124 03257 11581 73108 10067 20029 40319 57001 69901 71562 865/2 333 81622 86638=
03257,2000,01,20,13,00,AAXX 20134 03257 41582 33307 10069 20027 40315 58004 72161 83802 333 81820 83642=
03257,2000,01,20,14,00,AAXX 20144 03257 42584 13310 10076 20017 40314 57006 81802 333 81825=
03257,2000,01,20,15,00,AAXX 20154 03257 41586 13210 10072 20024 40311 57008 70261 81802 333 81825=
03257,2000,01,20,16,00,AAXX 20164 03257 42584 23007 10057 20021 40317 53002 82802 333 81825=
03257,2000,01,20,17,00,AAXX 20174 03257 42584 63008 10051 20020 40322 53007 865// 333 83627 86637=
03257,2000,01,20,18,00,AAXX 20184 03257 11582 73105 10049 20021 40327 52015 69902 70361 875// 333 10079 87629=
03257,2000,01,20,19,00,AAXX 20194 03257 42680 73306 10053 20022 40330 52012 875// 333 87632=
03257,2000,01,20,20,00,AAXX 20204 03257 42682 73209 10059 20022 40332 51010 875// 333 87632=
03257,2000,01,20,21,00,AAXX 20214 03257 42682 73008 10061 20024 40329 50003 875// 333 87635=
03257,2000,01,20,22,00,AAXX 20224 03257 42680 62807 10043 20020 40332 52002 865// 333 86642=
03257,2000,01,20,23,00,AAXX 20234 03257 42680 73206 10057 20020 40332 50000 875// 333 87645=
03257,2000,01,21,00,00,AAXX 21004 03257 32680 53005 10038 20014 40335 52005 85500 333 85640=
03257,2000,01,21,01,00,AAXX 21014 03257 42670 52907 10038 20010 40333 52001 85500 333 85645=
03257,2000,01,21,02,00,AAXX 21024 03257 42670 62907 10044 20011 40331 58001 865// 333 86645=
03257,2000,01,21,03,00,AAXX 21034 03257 42675 42707 10024 20006 40332 55003 84400 333 81640 84645=
03257,2000,01,21,04,00,AAXX 21044 03257 42675 22810 10039 20010 40329 57004 82500 333 82640=
03257,2000,01,21,05,00,AAXX 21054 03257 42675 12709 10028 20004 40328 58003 81500 333 81640=
03257,2000,01,21,06,00,AAXX 21064 03257 32675 12705 10019 21004 40331 55001 81500 333 20019 31102 81645=
03257,2000,01,21,07,00,AAXX 21074 03257 42682 12706 10022 21001 40331 52002 81500 333 81645=
03257,2000,01,21,08,00,AAXX 21084 03257 42982 02905 10021 21002 40334 52006=
03257,2000,01,21,09,00,AAXX 21094 03257 42686 10000 10017 20004 40340 53009 81500 333 81630=
03257,2000,01,21,10,00,AAXX 21104 03257 42686 12909 10039 20006 40340 51009 81502 333 81645=
03257,2000,01,21,11,00,AAXX 21114 03257 42686 12906 10059 20014 40340 51006 81501 333 81645=
03257,2000,01,21,12,00,AAXX 21124 03257 32686 12805 10073 20020 40339 54000 81504 333 81645=
03257,2000,01,21,13,00,AAXX 21134 03257 42689 23302 10081 20010 40330 58009 81804 333 81830=
03257,2000,01,21,14,00,AAXX 21144 03257 42689 43404 10084 20003 40321 58018 81804 333 81835 84075=
03257,2000,01,21,15,00,AAXX 21154 03257 42686 72706 10079 20019 40314 57025 81804 333 81835 87075=
03257,2000,01,21,16,00,AAXX 21164 03257 42682 72605 10064 20020 40309 56021 81402 333 81635 87072=
03257,2000,01,21,17,00,AAXX 21174 03257 42675 73206 10041 20014 40304 57018 81502 333 81635 87072=
03257,2000,01,21,18,00,AAXX 21184 03257 32675 72701 10028 20003 40295 58020 81502 333 10089 81630 87072=
03257,2000,01,21,19,00,AAXX 21194 03257 42675 72504 10035 20014 40286 58024 865/2 333 86635 87072=
03257,2000,01,21,20,00,AAXX 21204 03257 42675 72611 10041 20012 40275 57029 85502 333 85635 84072=
03257,2000,01,21,21,00,AAXX 21214 03257 42680 12913 10045 20009 40261 58033 81502 333 81635=
03257,2000,01,21,22,00,AAXX 21224 03257 42680 12910 10044 20010 40248 58037 81502 333 81637=
03257,2000,01,21,23,00,AAXX 21234 03257 42682 52711 10048 20011 40234 57040 85500 333 85637=
03257,2000,01,22,00,00,AAXX 22004 03257 32680 72712 10061 20011 40226 56035 875// 333 87632=

